NORAD_CAT_ID,EPOCH_UNIX,MEAN_MOTION,ECCENTRICITY,INCLINATION,RA_OF_ASC_NODE,ARG_OF_PERICENTER,MEAN_ANOMALY,APOAPSIS,PERIAPSIS,BSTAR
26208,1754686798,14.54291436,0.0070746,98.5,188.4516,10.9389,11.5714,761.826,661.511,0.00024915
26209,1754687975,14.65190631,0.0027969,98.6128,10.4001,340.2011,150.1829,696.196,656.734,0.00016637
26211,1754609563,13.33149104,0.0540459,98.9595,313.915,315.6353,89.5863,1540.96,728.861,0.00015025
26214,1754735930,15.71571949,0.0002616,98.6131,39.2578,326.4754,33.6339,356.167,352.645,0.0024292
26220,1754684615,14.76875515,0.0069028,98.6424,312.0538,204.3416,300.4036,687.645,590.767,0.00014844
26222,1754686969,14.53794412,0.0068451,98.5214,272.0698,322.9077,36.7399,761.826,664.743,0.0003256
26227,1754675444,14.54922408,0.0070332,98.5147,271.2264,330.0949,144.9388,759.468,659.769,0.00029262
26234,1754683720,14.55074254,0.0011978,98.586,326.5822,138.5023,350.5558,717.615,700.637,0.0001601
26235,1754711209,15.09908231,0.001595,98.4827,359.9685,251.4227,286.9466,547.511,525.453,0.0016234
26236,1754695021,14.39382169,0.0089306,98.7523,260.8378,348.0753,129.6888,824.295,696.79,0.00011831
26241,1754681162,14.3433802,0.010793,98.9083,226.4474,227.0811,312.1536,854.497,700.041,8.0808e-05
26259,1754688926,14.70366496,0.0063972,98.3997,302.8868,284.4122,136.5777,704.924,614.877,0.0008425
26260,1754710200,14.71863035,0.0060302,98.3682,292.8318,268.7459,90.6838,697.541,612.717,0.00097502
26262,1754714967,14.76137891,0.0043943,98.3498,304.5009,64.7255,324.4651,672.39,610.697,0.00097673
26265,1754675233,14.42742645,0.0097632,98.677,277.3355,52.9305,64.3146,819.041,679.865,0.0002342
26266,1754715719,14.68557362,0.0074773,98.4316,305.7086,339.4437,20.3762,718.348,613.011,0.00070014
26272,1754677810,14.76490578,0.0054612,98.2876,298.5322,9.0177,120.1531,678.755,602.096,0.00069756
26273,1754687661,14.8071625,0.0059229,98.672,340.7139,201.6522,274.8737,668.557,585.575,0.00024847
26280,1754688646,14.38168921,0.0085807,98.7693,260.4428,37.3833,135.4092,825.846,703.267,0.00012829
26283,1754708117,14.54936731,0.0078983,98.4992,279.502,39.3479,351.0154,765.553,653.591,0.00052795
26286,1754707367,14.62083157,0.0062321,98.4281,275.7756,141.0765,249.3002,730.485,642.43,0.00063519
26294,1754690427,14.53780544,0.0079671,98.5063,281.9271,64.1394,109.0487,769.828,656.831,0.00047813
26300,1754708830,14.66267946,0.006362,98.3945,279.0269,146.4259,243.0332,717.869,628.15,0.00084367
26306,1754693621,14.37908726,0.0097006,98.7896,257.6846,50.8361,66.9769,834.715,696.122,0.00013209
26310,1754692464,14.47307948,0.0088951,98.5717,279.8769,251.4632,282.2481,797.724,671.189,0.00028779
26313,1754673176,14.56209062,0.007398,98.4869,277.5716,6.4735,122.2238,757.847,653.039,0.00036869
26323,1754706105,14.56972446,0.0067306,98.4744,278.5175,296.5634,93.1457,750.629,655.309,0.00038264
26329,1754679020,14.79221249,0.0054559,98.3118,301.2001,87.8506,29.8881,670.031,593.54,0.0011135
26333,1754709435,15.1861821,0.0021607,98.1408,293.3925,308.9644,50.9663,524.901,495.135,0.0026683
26336,1754685941,14.71460962,0.0054204,98.3845,270.0653,97.3583,263.3787,694.54,618.28,0.00097125
26338,1754693900,14.39601503,0.0090086,98.7387,261.866,13.8415,104.6733,824.12,695.514,0.00016001
26347,1754665886,14.55913247,0.0053612,98.4848,276.7836,283.4275,76.095,744.384,668.421,0.00030413
26351,1754662711,14.52506693,0.0055036,98.6391,233.1296,259.0293,100.4707,756.527,678.424,0.00021581
26432,1754677571,14.80167124,0.0072839,98.5451,333.7528,89.9448,271.0108,679.836,577.761,0.00188
26436,1754525036,12.97813867,0.07028832,99.5287,324.8115,241.6246,111.2279,1808.291,733.048,6.6877846e-05
26441,1754686397,15.22088282,0.0018236,98.1343,298.0952,319.1286,40.858,512.087,487.003,0.0024214
26442,1754739870,14.59652369,0.0058256,98.5472,224.1633,95.1667,56.5043,735.5,653.098,0.00044753
26443,1754688791,14.42646731,0.0092156,98.6663,272.2722,311.8075,225.1262,815.457,684.081,0.00018029
26444,1754647366,14.66726802,0.0068524,98.5549,286.8342,318.5012,102.5453,719.846,623.232,0.00024925
26446,1754735557,14.47580178,0.009459,98.5936,284.1301,344.3246,15.5022,800.834,666.295,0.00040252
26449,1754676800,14.50061746,0.0080449,98.5525,278.3792,111.4741,10.7998,782.596,668.301,0.00034139
26454,1754645528,14.70952706,0.0056573,98.3604,274.8326,18.5443,45.2962,697.836,618.225,0.00057907
26471,1754678091,4.53020537,0.5547257,3.4857,111.9629,176.7649,189.2638,17608.925,491.772,0.00086823
26497,1754671734,2.2814972,0.7166297,7.1452,271.5231,187.5802,211.9702,35462.523,528.654,0.0016378
26498,1754074793,14.03925868,0.0033895,65.8148,4.2649,289.0277,70.713,904.836,855.632,0.0012052
26503,1754621220,13.91995128,0.0050298,64.9589,39.1554,340.5055,129.8185,958.366,884.933,0.00011749
26504,1754600856,13.92326337,0.0053575,64.9637,28.8383,328.6147,103.1689,959.594,881.389,0.00012236
26506,1754674576,13.92678963,0.005027,64.9579,25.4327,340.7922,19.1245,955.944,882.576,0.00016396
26507,1754671845,13.93448329,0.0051914,64.9608,16.1645,334.2933,42.7491,954.443,878.704,0.00017449
26508,1753650677,13.92087145,0.0055217,64.966,74.2992,323.699,53.919,961.633,881.022,0.00014425
26509,1754715433,13.92030863,0.0055595,64.9643,44.2137,325.0301,34.7116,962.107,880.942,0.00012075
26512,1754630001,13.9258214,0.0055592,64.9654,33.9441,321.4917,218.5511,960.167,879.028,0.00014946
26513,1754335387,13.9138699,0.003021,65.0551,6.1244,117.3957,312.9427,945.835,901.717,0.00017015
26517,1754338024,13.91076676,0.0031792,65.0518,10.4553,130.0553,302.792,948.08,901.644,0.00013926
26519,1754372798,13.90705759,0.0031159,65.0505,30.9808,137.2629,43.8083,948.92,903.401,0.00013467
26520,1754425198,13.90897511,0.003332,65.0492,16.6632,142.5496,289.3369,949.825,901.154,0.00013351
26525,1754631666,2.83235464,0.6715578,26.539,302.3739,151.0915,259.0649,28893.437,552.33,0.0034217
26528,1754675822,2.68112772,0.6674704,27.4692,45.829,101.479,359.355,30118.12,900.006,0.0060481
26529,1754204655,2.65524362,0.6805848,26.4227,169.0263,197.7579,353.5644,30643.821,658.33,0.00027123
26530,1754641980,2.828296,0.6750113,26.9126,243.5791,88.826,341.4621,29000.115,486.017,0.00021537
26535,1754657310,4.1277187,0.587985,19.7577,74.8095,328.5891,6.8677,19689.893,385.417,0.0017149
26601,1754622257,12.41287876,0.0028654,73.6013,104.3901,334.4761,180.5258,1523.728,1478.573,0.00018666
26613,1754688917,2.03119089,0.7353049,6.0994,121.211,318.0745,265.4124,39324.77,593.167,-0.0025797
26614,1754705517,15.01249577,0.0031184,98.7186,74.8478,191.1324,320.3039,584.689,541.399,0.0048134
26650,1754736463,15.29954601,0.0004139,98.5654,216.146,43.1162,317.0398,478.787,473.113,0.0014576
26654,1754629813,14.62696659,0.0090532,98.6517,310.7356,297.8938,61.3116,748.421,620.543,0.0008232
26658,1754687689,14.54591538,0.0066082,98.5509,262.5866,321.4856,218.7333,757.538,663.849,0.0003463
26661,1754739551,15.05593823,0.0029905,98.1965,300.6336,134.3438,236.4186,570.403,528.968,0.0024223
26669,1754549137,13.85312893,0.0031104,100.1432,236.7399,276.8562,94.7652,967.883,922.327,0.003514
26670,1754690276,13.94304055,0.0035795,100.292,15.9049,175.0295,338.813,939.689,887.488,0.0046279
26672,1754264888,11.41650414,0.1600042,120.5119,202.231,148.4198,222.3555,3286.215,620.127,0.0028825
26677,1753957390,1.9316316,0.6000787,72.5382,193.6623,168.7818,344.1885,37199.165,4513.511,0.0
26680,1754669520,1.98266747,0.7345016,63.5386,51.9974,43.8778,355.278,40045.944,727.952,0.0
26681,1754671008,2.60069396,0.6838842,8.5549,216.2083,147.5392,312.5746,31233.415,682.686,-0.0034109
26683,1754407625,2.2280221,0.7111377,5.8517,99.0007,6.872,242.3883,35993.362,774.725,-0.003038
26684,1754647548,2.37006727,0.7054193,5.6283,193.1158,172.8286,271.5822,34147.133,621.881,-0.001553
26685,1754534671,2.16232017,0.70334351,6.8584,208.308,120.874,325.7451,36650.485,1115.785,0.0
26701,1754665754,13.54991823,0.0258911,99.7929,88.5134,329.4829,52.7594,1246.376,861.526,0.00048965
26717,1754628453,2.2633412,0.7163,8.0558,271.1005,56.5782,32.2227,35677.903,573.621,-0.00026279
26722,1754632389,2.22931129,0.7057741,2.1086,49.9523,304.5599,7.6095,35844.262,904.73,-0.0043904
26726,1754734431,2.27609623,0.7151667,7.858,219.5072,159.041,310.4598,35492.971,575.291,-0.00071466
26727,1754710968,2.28875465,0.7135404,8.024,220.1911,154.1923,270.7748,35298.889,589.185,-0.0011201
26728,1754685626,2.47366612,0.7031875,8.4936,340.8193,268.9958,17.3144,32956.058,476.589,0.0045871
26729,1754666210,2.31093617,0.7182178,8.2217,93.7445,40.7239,355.0607,35144.804,431.494,0.0021044
26731,1754670977,12.9523349,0.0019946,90.253,7.1456,323.1602,55.2505,1296.102,1265.548,0.00046891
26732,1754428712,12.95667971,0.00609727,90.2491,3.8525,289.7411,225.6954,1325.801,1232.424,-0.00099299302
26733,1754665275,12.94314623,0.0032411,90.2403,359.3312,325.0837,52.6486,1309.285,1259.614,0.00058761
26743,1754704067,13.75808025,0.0028657,82.9259,354.8655,277.0926,82.6972,999.878,957.712,5.2699e-05
26756,1754703790,14.40525761,0.0080666,98.741,257.5551,288.2594,70.9828,814.318,699.209,0.00010699
26764,1754549842,2.66999968,0.6781235,26.251,240.4516,116.3579,356.9234,30453.27,686.401,-0.0018343
26765,1754681686,2.6897438,0.6721706,26.919,89.5465,33.5741,6.4161,30142.794,781.801,0.00097757
26777,1754386143,2.56650667,0.6682143,27.2487,306.367,252.5185,63.1875,31213.575,1098.358,0.0
26778,1754549101,2.65285191,0.6779923,27.5333,200.7317,27.7553,0.7531,30608.924,719.703,0.0040542
26779,1754721475,2.60272904,0.673422,26.5109,194.7466,359.5801,7.4863,30980.243,912.569,-0.0025117
26781,1754698749,3.4362728,0.6253664,27.1724,118.3462,238.8717,45.4468,23772.377,571.31,-0.0014099
26782,1754699175,9.47188907,0.2944538,26.4245,103.5359,164.4422,207.0713,5836.036,279.238,0.0022677
26786,1753040484,2.05129994,0.5716767,70.2678,35.9556,333.1618,6.1709,34744.312,4828.815,0.0
26787,1754601038,2.26256928,0.6993633,6.6672,224.8283,86.8907,344.1165,35272.359,990.311,0.0
26791,1754675164,12.45781822,0.1662928,34.594,21.8158,153.9666,215.5131,2789.306,175.075,0.00055803
